CCSDS_OMM_VERS = 2.0
CREATION_DATE  = 
ORIGINATOR     = 

OBJECT_NAME    = H-2A R/B
OBJECT_ID      = 2006-002B
CENTER_NAME    = EARTH
REF_FRAME      = TEME
TIME_SYSTEM    = UTC
MEAN_ELEMENT_THEORY = SGP/SGP4

EPOCH          = 2026-03-09T20:57:17.771904
MEAN_MOTION    = 15.16424858
ECCENTRICITY   = .0051904
INCLINATION    = 98.2412
RA_OF_ASC_NODE = 215.9121
ARG_OF_PERICENTER = 240.3557
MEAN_ANOMALY   = 119.2499

EPHEMERIS_TYPE = 0
CLASSIFICATION_TYPE = U
NORAD_CAT_ID   = 28932
ELEMENT_SET_NO = 999
REV_AT_EPOCH   = 9446
BSTAR          = .574E-3
MEAN_MOTION_DOT = .11476E-3
MEAN_MOTION_DDOT = 0

CCSDS_OMM_VERS = 2.0
CREATION_DATE  = 
ORIGINATOR     = 

OBJECT_NAME    = RESURS-DK 1
OBJECT_ID      = 2006-021A
CENTER_NAME    = EARTH
REF_FRAME      = TEME
TIME_SYSTEM    = UTC
MEAN_ELEMENT_THEORY = SGP/SGP4

EPOCH          = 2026-03-09T20:47:10.198464
MEAN_MOTION    = 15.12746011
ECCENTRICITY   = .0001873
INCLINATION    = 69.9317
RA_OF_ASC_NODE = 236.5664
ARG_OF_PERICENTER = 163.0233
MEAN_ANOMALY   = 197.0996

EPHEMERIS_TYPE = 0
CLASSIFICATION_TYPE = U
NORAD_CAT_ID   = 29228
ELEMENT_SET_NO = 999
REV_AT_EPOCH   = 8755
BSTAR          = .24045E-3
MEAN_MOTION_DOT = .4119E-4
MEAN_MOTION_DDOT = 0

CCSDS_OMM_VERS = 2.0
CREATION_DATE  = 
ORIGINATOR     = 

OBJECT_NAME    = CZ-4B R/B
OBJECT_ID      = 2006-046C
CENTER_NAME    = EARTH
REF_FRAME      = TEME
TIME_SYSTEM    = UTC
MEAN_ELEMENT_THEORY = SGP/SGP4

EPOCH          = 2026-03-09T16:12:15.634944
MEAN_MOTION    = 15.16904010
ECCENTRICITY   = .0031692
INCLINATION    = 97.5596
RA_OF_ASC_NODE = 113.5843
ARG_OF_PERICENTER = 267.3866
MEAN_ANOMALY   = 92.3739

EPHEMERIS_TYPE = 0
CLASSIFICATION_TYPE = U
NORAD_CAT_ID   = 29507
ELEMENT_SET_NO = 999
REV_AT_EPOCH   = 6004
BSTAR          = .30123E-3
MEAN_MOTION_DOT = .5942E-4
MEAN_MOTION_DDOT = 0

CCSDS_OMM_VERS = 2.0
CREATION_DATE  = 
ORIGINATOR     = 

OBJECT_NAME    = CZ-2C R/B
OBJECT_ID      = 2007-010B
CENTER_NAME    = EARTH
REF_FRAME      = TEME
TIME_SYSTEM    = UTC
MEAN_ELEMENT_THEORY = SGP/SGP4

EPOCH          = 2026-03-09T20:48:10.834848
MEAN_MOTION    = 14.20246229
ECCENTRICITY   = .0057933
INCLINATION    = 98.3980
RA_OF_ASC_NODE = 182.1367
ARG_OF_PERICENTER = 294.0785
MEAN_ANOMALY   = 65.4338

EPHEMERIS_TYPE = 0
CLASSIFICATION_TYPE = U
NORAD_CAT_ID   = 31114
ELEMENT_SET_NO = 999
REV_AT_EPOCH   = 97974
BSTAR          = .93396E-4
MEAN_MOTION_DOT = .161E-5
MEAN_MOTION_DDOT = 0

CCSDS_OMM_VERS = 2.0
CREATION_DATE  = 
ORIGINATOR     = 

OBJECT_NAME    = COSMO-SKYMED 1
OBJECT_ID      = 2007-023A
CENTER_NAME    = EARTH
REF_FRAME      = TEME
TIME_SYSTEM    = UTC
MEAN_ELEMENT_THEORY = SGP/SGP4

EPOCH          = 2026-03-09T19:09:24.500736
MEAN_MOTION    = 14.96535076
ECCENTRICITY   = .0001256
INCLINATION    = 97.8872
RA_OF_ASC_NODE = 259.8307
ARG_OF_PERICENTER = 100.2872
MEAN_ANOMALY   = 259.8490

EPHEMERIS_TYPE = 0
CLASSIFICATION_TYPE = U
NORAD_CAT_ID   = 31598
ELEMENT_SET_NO = 999
REV_AT_EPOCH   = 1492
BSTAR          = .3821E-3
MEAN_MOTION_DOT = .4286E-4
MEAN_MOTION_DDOT = 0

CCSDS_OMM_VERS = 2.0
CREATION_DATE  = 
ORIGINATOR     = 

OBJECT_NAME    = COSMOS 2428
OBJECT_ID      = 2007-029A
CENTER_NAME    = EARTH
REF_FRAME      = TEME
TIME_SYSTEM    = UTC
MEAN_ELEMENT_THEORY = SGP/SGP4

EPOCH          = 2026-03-09T19:37:46.691328
MEAN_MOTION    = 14.12946167
ECCENTRICITY   = .0009138
INCLINATION    = 70.9433
RA_OF_ASC_NODE = 203.0735
ARG_OF_PERICENTER = 276.8795
MEAN_ANOMALY   = 83.1286

EPHEMERIS_TYPE = 0
CLASSIFICATION_TYPE = U
NORAD_CAT_ID   = 31792
ELEMENT_SET_NO = 999
REV_AT_EPOCH   = 96411
BSTAR          = .60954E-4
MEAN_MOTION_DOT = .66E-6
MEAN_MOTION_DDOT = 0

CCSDS_OMM_VERS = 2.0
CREATION_DATE  = 
ORIGINATOR     = 

OBJECT_NAME    = SL-16 R/B
OBJECT_ID      = 2007-029B
CENTER_NAME    = EARTH
REF_FRAME      = TEME
TIME_SYSTEM    = UTC
MEAN_ELEMENT_THEORY = SGP/SGP4

EPOCH          = 2026-03-09T17:09:01.618848
MEAN_MOTION    = 14.14833325
ECCENTRICITY   = .0002308
INCLINATION    = 70.9759
RA_OF_ASC_NODE = 172.3325
ARG_OF_PERICENTER = 276.2204
MEAN_ANOMALY   = 193.3696

EPHEMERIS_TYPE = 0
CLASSIFICATION_TYPE = U
NORAD_CAT_ID   = 31793
ELEMENT_SET_NO = 999
REV_AT_EPOCH   = 96537
BSTAR          = .47723E-4
MEAN_MOTION_DOT = .44E-6
MEAN_MOTION_DDOT = 0

CCSDS_OMM_VERS = 2.0
CREATION_DATE  = 
ORIGINATOR     = 

OBJECT_NAME    = KORONAS-FOTON
OBJECT_ID      = 2009-003A
CENTER_NAME    = EARTH
REF_FRAME      = TEME
TIME_SYSTEM    = UTC
MEAN_ELEMENT_THEORY = SGP/SGP4

EPOCH          = 2026-03-09T19:53:57.402240
MEAN_MOTION    = 15.43324779
ECCENTRICITY   = .0011317
INCLINATION    = 82.4276
RA_OF_ASC_NODE = 275.7326
ARG_OF_PERICENTER = 149.0532
MEAN_ANOMALY   = 211.1384

EPHEMERIS_TYPE = 0
CLASSIFICATION_TYPE = U
NORAD_CAT_ID   = 33504
ELEMENT_SET_NO = 999
REV_AT_EPOCH   = 94576
BSTAR          = .25165E-3
MEAN_MOTION_DOT = .11273E-3
MEAN_MOTION_DDOT = 0

CCSDS_OMM_VERS = 2.0
CREATION_DATE  = 
ORIGINATOR     = 

OBJECT_NAME    = CZ-2C R/B
OBJECT_ID      = 2011-030B
CENTER_NAME    = EARTH
REF_FRAME      = TEME
TIME_SYSTEM    = UTC
MEAN_ELEMENT_THEORY = SGP/SGP4

EPOCH          = 2026-03-09T21:09:37.668672
MEAN_MOTION    = 14.81223931
ECCENTRICITY   = .0052379
INCLINATION    = 97.8549
RA_OF_ASC_NODE = 26.1410
ARG_OF_PERICENTER = 351.4471
MEAN_ANOMALY   = 67.3026

EPHEMERIS_TYPE = 0
CLASSIFICATION_TYPE = U
NORAD_CAT_ID   = 37731
ELEMENT_SET_NO = 999
REV_AT_EPOCH   = 79012
BSTAR          = .2892E-3
MEAN_MOTION_DOT = .2251E-4
MEAN_MOTION_DDOT = 0

CCSDS_OMM_VERS = 2.0
CREATION_DATE  = 
ORIGINATOR     = 

OBJECT_NAME    = H-2A R/B
OBJECT_ID      = 2012-025E
CENTER_NAME    = EARTH
REF_FRAME      = TEME
TIME_SYSTEM    = UTC
MEAN_ELEMENT_THEORY = SGP/SGP4

EPOCH          = 2026-03-09T20:41:54.522240
MEAN_MOTION    = 14.95172532
ECCENTRICITY   = .0043312
INCLINATION    = 98.4741
RA_OF_ASC_NODE = 35.9227
ARG_OF_PERICENTER = 313.9175
MEAN_ANOMALY   = 45.8471

EPHEMERIS_TYPE = 0
CLASSIFICATION_TYPE = U
NORAD_CAT_ID   = 38341
ELEMENT_SET_NO = 999
REV_AT_EPOCH   = 74824
BSTAR          = .44935E-3
MEAN_MOTION_DOT = .4959E-4
MEAN_MOTION_DDOT = 0

CCSDS_OMM_VERS = 2.0
CREATION_DATE  = 
ORIGINATOR     = 

OBJECT_NAME    = SHIJIAN-16 (SJ-16)
OBJECT_ID      = 2013-057A
CENTER_NAME    = EARTH
REF_FRAME      = TEME
TIME_SYSTEM    = UTC
MEAN_ELEMENT_THEORY = SGP/SGP4

EPOCH          = 2026-03-09T19:55:25.405824
MEAN_MOTION    = 14.92346167
ECCENTRICITY   = .0015496
INCLINATION    = 74.9733
RA_OF_ASC_NODE = 184.8220
ARG_OF_PERICENTER = 112.2543
MEAN_ANOMALY   = 248.0291

EPHEMERIS_TYPE = 0
CLASSIFICATION_TYPE = U
NORAD_CAT_ID   = 39358
ELEMENT_SET_NO = 999
REV_AT_EPOCH   = 67152
BSTAR          = .68039E-4
MEAN_MOTION_DOT = .668E-5
MEAN_MOTION_DDOT = 0

CCSDS_OMM_VERS = 2.0
CREATION_DATE  = 
ORIGINATOR     = 

OBJECT_NAME    = SL-4 R/B
OBJECT_ID      = 2014-021B
CENTER_NAME    = EARTH
REF_FRAME      = TEME
TIME_SYSTEM    = UTC
MEAN_ELEMENT_THEORY = SGP/SGP4

EPOCH          = 2026-03-09T02:37:43.173408
MEAN_MOTION    = 15.39160447
ECCENTRICITY   = .00975963
INCLINATION    = 51.6078
RA_OF_ASC_NODE = 340.1090
ARG_OF_PERICENTER = 100.9217
MEAN_ANOMALY   = 260.2766

EPHEMERIS_TYPE = 0
CLASSIFICATION_TYPE = U
NORAD_CAT_ID   = 39679
ELEMENT_SET_NO = 999
REV_AT_EPOCH   = 65618
BSTAR          = .43042763E-3
MEAN_MOTION_DOT = .19652E-3
MEAN_MOTION_DDOT = 0

